LEMUR-2-FURIAUS         
1 42840U 17042R   26068.96143223  .00025928  00000+0  99966-3 0  9991
2 42840  97.3753 248.4990 0007537  55.8686 304.3266 15.26272951473053
STARLINK-31187          
1 58790U 24012D   26068.96342531  .00000327  00000+0  21422-4 0  9999
2 58790  43.0030 164.0660 0001509 274.5972  85.4707 15.27574505121270
